[
    {
        "Altitude(m)": 562519.3142025713,
        "Argument of Periapsis(deg)": 0.033114955553567506,
        "Eccentricity": 0.0,
        "Inclination(deg)": 53.0,
        "Latitude(deg)": -30.087649489806306,
        "Longitude(deg)": 10.276946950654358,
        "Mean Anomaly(deg)": -38.63283566211199,
        "RAAN(deg)": 139.95071684264008,
        "Satellite Name": "Starlink Shell 1 632",
        "Satellite Number": 632,
        "Semi-Major Axis(m)": 6931778.249405717,
        "Time(s)": 950
    },
    {
        "Altitude(m)": 562344.146865861,
        "Argument of Periapsis(deg)": 0.03346353403307874,
        "Eccentricity": 0.0,
        "Inclination(deg)": 53.0,
        "Latitude(deg)": -29.63466883712977,
        "Longitude(deg)": 10.73468863456374,
        "Mean Anomaly(deg)": -38.006004458555346,
        "RAAN(deg)": 139.9501980725626,
        "Satellite Name": "Starlink Shell 1 632",
        "Satellite Number": 632,
        "Semi-Major Axis(m)": 6931778.249405717,
        "Time(s)": 960
    },
    {
        "Altitude(m)": 562169.1965633277,
        "Argument of Periapsis(deg)": 0.03381211251258998,
        "Eccentricity": 0.0,
        "Inclination(deg)": 53.0,
        "Latitude(deg)": -29.179782944459358,
        "Longitude(deg)": 11.18799350474958,
        "Mean Anomaly(deg)": -37.37917325499866,
        "RAAN(deg)": 139.94967930248512,
        "Satellite Name": "Starlink Shell 1 632",
        "Satellite Number": 632,
        "Semi-Major Axis(m)": 6931778.249405717,
        "Time(s)": 970
    },
    {
        "Altitude(m)": 561994.5285778424,
        "Argument of Periapsis(deg)": 0.034160690992101214,
        "Eccentricity": 0.0,
        "Inclination(deg)": 53.0,
        "Latitude(deg)": -28.723041856477717,
        "Longitude(deg)": 11.6369640143271,
        "Mean Anomaly(deg)": -36.752342051441914,
        "RAAN(deg)": 139.94916053240766,
        "Satellite Name": "Starlink Shell 1 632",
        "Satellite Number": 632,
        "Semi-Major Axis(m)": 6931778.249405717,
        "Time(s)": 980
    },
    {
        "Altitude(m)": 561820.207919764,
        "Argument of Periapsis(deg)": 0.034509269471612446,
        "Eccentricity": 0.0,
        "Inclination(deg)": 53.0,
        "Latitude(deg)": -28.264494524244466,
        "Longitude(deg)": 12.081701829853547,
        "Mean Anomaly(deg)": -36.12551084788515,
        "RAAN(deg)": 139.9486417623302,
        "Satellite Name": "Starlink Shell 1 632",
        "Satellite Number": 632,
        "Semi-Major Axis(m)": 6931778.249405717,
        "Time(s)": 990
    }
]